STARLINK-37098          
1 68192U 26050AB  26087.50880882  .00439313  00000+0  20961-2 0  9993
2 68192  53.1592 187.2984 0001142  56.3087 303.8045 15.81098747  3454
STARLINK-37090          
1 68193U 26050AC  26087.50730860  .00297581  00000+0  14479-2 0  9990
2 68193  53.1595 187.2876 0000965  71.2446 288.8681 15.81051101  3456
STARLINK-37093          
1 68194U 26050AD  26087.51107155  .00319408  00000+0  15536-2 0  9995
2 68194  53.1592 187.3129 0001477  41.2666 318.8468 15.80999501  3457
STARLINK-37058          
1 68195U 26050AE  26087.50807044  .00313627  00000+0  15265-2 0  9995
2 68195  53.1591 187.2927 0001033  50.1788 309.9325 15.81000507  1893
YAOGAN-50 02            
1 68196U 26051A   26087.49642590  .00000264  00000+0  70004-4 0  9992
2 68196 141.9879 297.9164 0000879 253.6280 106.4343 13.83266753  1814
CZ-6A R/B               
1 68197U 26051B   26087.36557503  .00000992  00000+0  12194-3 0  9991
2 68197 142.0320 303.9543 0186569 185.2472 174.6285 14.56369914  1884
2026-052A               
1 68198U 26052A   26085.62264051  .00000448  00000+0  31529-4 0  9993
2 68198  97.5376 161.7059 0012977 225.7685 134.2480 15.09879016  1583
2026-052C               
1 68200U 26052C   26087.54216953  .00005425  00000+0  33532-3 0  9993
2 68200  97.5372 163.5999 0011712 223.0302 137.0012 15.10213305  1867
2026-052D               
1 68201U 26052D   26087.54079142  .00007996  00000+0  48957-3 0  9993
2 68201  97.5376 163.5982 0010852 219.6131 140.4307 15.10416072  1871
2026-052E               
1 68202U 26052E   26087.54077089  .00007945  00000+0  48650-3 0  9996
2 68202  97.5373 163.6010 0010715 223.5693 136.4691 15.10416372  1871
2026-052F               
1 68203U 26052F   26087.53871200  .00007937  00000+0  48274-3 0  9996
2 68203  97.5366 163.6073 0010024 215.2041 144.8527 15.10670789  1876
