CCSDS_OMM_VERS = 2.0
CREATION_DATE  = 
ORIGINATOR     = 

OBJECT_NAME    = STARLINK-37098
OBJECT_ID      = 2026-050AB
CENTER_NAME    = EARTH
REF_FRAME      = TEME
TIME_SYSTEM    = UTC
MEAN_ELEMENT_THEORY = SGP/SGP4

EPOCH          = 2026-03-28T12:12:41.082048
MEAN_MOTION    = 15.81098747
ECCENTRICITY   = .0001142
INCLINATION    = 53.1592
RA_OF_ASC_NODE = 187.2984
ARG_OF_PERICENTER = 56.3087
MEAN_ANOMALY   = 303.8045

EPHEMERIS_TYPE = 0
CLASSIFICATION_TYPE = U
NORAD_CAT_ID   = 68192
ELEMENT_SET_NO = 999
REV_AT_EPOCH   = 345
BSTAR          = .20961E-2
MEAN_MOTION_DOT = .439313E-2
MEAN_MOTION_DDOT = 0

CCSDS_OMM_VERS = 2.0
CREATION_DATE  = 
ORIGINATOR     = 

OBJECT_NAME    = STARLINK-37090
OBJECT_ID      = 2026-050AC
CENTER_NAME    = EARTH
REF_FRAME      = TEME
TIME_SYSTEM    = UTC
MEAN_ELEMENT_THEORY = SGP/SGP4

EPOCH          = 2026-03-28T12:10:31.463040
MEAN_MOTION    = 15.81051101
ECCENTRICITY   = .0000965
INCLINATION    = 53.1595
RA_OF_ASC_NODE = 187.2876
ARG_OF_PERICENTER = 71.2446
MEAN_ANOMALY   = 288.8681

EPHEMERIS_TYPE = 0
CLASSIFICATION_TYPE = U
NORAD_CAT_ID   = 68193
ELEMENT_SET_NO = 999
REV_AT_EPOCH   = 345
BSTAR          = .14479E-2
MEAN_MOTION_DOT = .297581E-2
MEAN_MOTION_DDOT = 0

CCSDS_OMM_VERS = 2.0
CREATION_DATE  = 
ORIGINATOR     = 

OBJECT_NAME    = STARLINK-37093
OBJECT_ID      = 2026-050AD
CENTER_NAME    = EARTH
REF_FRAME      = TEME
TIME_SYSTEM    = UTC
MEAN_ELEMENT_THEORY = SGP/SGP4

EPOCH          = 2026-03-28T12:15:56.581920
MEAN_MOTION    = 15.80999501
ECCENTRICITY   = .0001477
INCLINATION    = 53.1592
RA_OF_ASC_NODE = 187.3129
ARG_OF_PERICENTER = 41.2666
MEAN_ANOMALY   = 318.8468

EPHEMERIS_TYPE = 0
CLASSIFICATION_TYPE = U
NORAD_CAT_ID   = 68194
ELEMENT_SET_NO = 999
REV_AT_EPOCH   = 345
BSTAR          = .15536E-2
MEAN_MOTION_DOT = .319408E-2
MEAN_MOTION_DDOT = 0

CCSDS_OMM_VERS = 2.0
CREATION_DATE  = 
ORIGINATOR     = 

OBJECT_NAME    = STARLINK-37058
OBJECT_ID      = 2026-050AE
CENTER_NAME    = EARTH
REF_FRAME      = TEME
TIME_SYSTEM    = UTC
MEAN_ELEMENT_THEORY = SGP/SGP4

EPOCH          = 2026-03-28T12:11:37.286016
MEAN_MOTION    = 15.81000507
ECCENTRICITY   = .0001033
INCLINATION    = 53.1591
RA_OF_ASC_NODE = 187.2927
ARG_OF_PERICENTER = 50.1788
MEAN_ANOMALY   = 309.9325

EPHEMERIS_TYPE = 0
CLASSIFICATION_TYPE = U
NORAD_CAT_ID   = 68195
ELEMENT_SET_NO = 999
REV_AT_EPOCH   = 189
BSTAR          = .15265E-2
MEAN_MOTION_DOT = .313627E-2
MEAN_MOTION_DDOT = 0

CCSDS_OMM_VERS = 2.0
CREATION_DATE  = 
ORIGINATOR     = 

OBJECT_NAME    = YAOGAN-50 02
OBJECT_ID      = 2026-051A
CENTER_NAME    = EARTH
REF_FRAME      = TEME
TIME_SYSTEM    = UTC
MEAN_ELEMENT_THEORY = SGP/SGP4

EPOCH          = 2026-03-28T11:54:51.197760
MEAN_MOTION    = 13.83266753
ECCENTRICITY   = .0000879
INCLINATION    = 141.9879
RA_OF_ASC_NODE = 297.9164
ARG_OF_PERICENTER = 253.6280
MEAN_ANOMALY   = 106.4343

EPHEMERIS_TYPE = 0
CLASSIFICATION_TYPE = U
NORAD_CAT_ID   = 68196
ELEMENT_SET_NO = 999
REV_AT_EPOCH   = 181
BSTAR          = .70004E-4
MEAN_MOTION_DOT = .264E-5
MEAN_MOTION_DDOT = 0

CCSDS_OMM_VERS = 2.0
CREATION_DATE  = 
ORIGINATOR     = 

OBJECT_NAME    = CZ-6A R/B
OBJECT_ID      = 2026-051B
CENTER_NAME    = EARTH
REF_FRAME      = TEME
TIME_SYSTEM    = UTC
MEAN_ELEMENT_THEORY = SGP/SGP4

EPOCH          = 2026-03-28T08:46:25.682592
MEAN_MOTION    = 14.56369914
ECCENTRICITY   = .0186569
INCLINATION    = 142.0320
RA_OF_ASC_NODE = 303.9543
ARG_OF_PERICENTER = 185.2472
MEAN_ANOMALY   = 174.6285

EPHEMERIS_TYPE = 0
CLASSIFICATION_TYPE = U
NORAD_CAT_ID   = 68197
ELEMENT_SET_NO = 999
REV_AT_EPOCH   = 188
BSTAR          = .12194E-3
MEAN_MOTION_DOT = .992E-5
MEAN_MOTION_DDOT = 0

CCSDS_OMM_VERS = 2.0
CREATION_DATE  = 
ORIGINATOR     = 

OBJECT_NAME    = 2026-052A
OBJECT_ID      = 2026-052A
CENTER_NAME    = EARTH
REF_FRAME      = TEME
TIME_SYSTEM    = UTC
MEAN_ELEMENT_THEORY = SGP/SGP4

EPOCH          = 2026-03-26T14:56:36.140064
MEAN_MOTION    = 15.09879016
ECCENTRICITY   = .00129773
INCLINATION    = 97.5376
RA_OF_ASC_NODE = 161.7059
ARG_OF_PERICENTER = 225.7685
MEAN_ANOMALY   = 134.2480

EPHEMERIS_TYPE = 0
CLASSIFICATION_TYPE = U
NORAD_CAT_ID   = 68198
ELEMENT_SET_NO = 999
REV_AT_EPOCH   = 158
BSTAR          = .3152876E-4
MEAN_MOTION_DOT = .448E-5
MEAN_MOTION_DDOT = 0

CCSDS_OMM_VERS = 2.0
CREATION_DATE  = 
ORIGINATOR     = 

OBJECT_NAME    = 2026-052C
OBJECT_ID      = 2026-052C
CENTER_NAME    = EARTH
REF_FRAME      = TEME
TIME_SYSTEM    = UTC
MEAN_ELEMENT_THEORY = SGP/SGP4

EPOCH          = 2026-03-28T13:00:43.447392
MEAN_MOTION    = 15.10213305
ECCENTRICITY   = .0011712
INCLINATION    = 97.5372
RA_OF_ASC_NODE = 163.5999
ARG_OF_PERICENTER = 223.0302
MEAN_ANOMALY   = 137.0012

EPHEMERIS_TYPE = 0
CLASSIFICATION_TYPE = U
NORAD_CAT_ID   = 68200
ELEMENT_SET_NO = 999
REV_AT_EPOCH   = 186
BSTAR          = .33532E-3
MEAN_MOTION_DOT = .5425E-4
MEAN_MOTION_DDOT = 0

CCSDS_OMM_VERS = 2.0
CREATION_DATE  = 
ORIGINATOR     = 

OBJECT_NAME    = 2026-052D
OBJECT_ID      = 2026-052D
CENTER_NAME    = EARTH
REF_FRAME      = TEME
TIME_SYSTEM    = UTC
MEAN_ELEMENT_THEORY = SGP/SGP4

EPOCH          = 2026-03-28T12:58:44.378688
MEAN_MOTION    = 15.10416072
ECCENTRICITY   = .0010852
INCLINATION    = 97.5376
RA_OF_ASC_NODE = 163.5982
ARG_OF_PERICENTER = 219.6131
MEAN_ANOMALY   = 140.4307

EPHEMERIS_TYPE = 0
CLASSIFICATION_TYPE = U
NORAD_CAT_ID   = 68201
ELEMENT_SET_NO = 999
REV_AT_EPOCH   = 187
BSTAR          = .48957E-3
MEAN_MOTION_DOT = .7996E-4
MEAN_MOTION_DDOT = 0

CCSDS_OMM_VERS = 2.0
CREATION_DATE  = 
ORIGINATOR     = 

OBJECT_NAME    = 2026-052E
OBJECT_ID      = 2026-052E
CENTER_NAME    = EARTH
REF_FRAME      = TEME
TIME_SYSTEM    = UTC
MEAN_ELEMENT_THEORY = SGP/SGP4

EPOCH          = 2026-03-28T12:58:42.604896
MEAN_MOTION    = 15.10416372
ECCENTRICITY   = .0010715
INCLINATION    = 97.5373
RA_OF_ASC_NODE = 163.6010
ARG_OF_PERICENTER = 223.5693
MEAN_ANOMALY   = 136.4691

EPHEMERIS_TYPE = 0
CLASSIFICATION_TYPE = U
NORAD_CAT_ID   = 68202
ELEMENT_SET_NO = 999
REV_AT_EPOCH   = 187
BSTAR          = .4865E-3
MEAN_MOTION_DOT = .7945E-4
MEAN_MOTION_DDOT = 0

CCSDS_OMM_VERS = 2.0
CREATION_DATE  = 
ORIGINATOR     = 

OBJECT_NAME    = 2026-052F
OBJECT_ID      = 2026-052F
CENTER_NAME    = EARTH
REF_FRAME      = TEME
TIME_SYSTEM    = UTC
MEAN_ELEMENT_THEORY = SGP/SGP4

EPOCH          = 2026-03-28T12:55:44.716800
MEAN_MOTION    = 15.10670789
ECCENTRICITY   = .0010024
INCLINATION    = 97.5366
RA_OF_ASC_NODE = 163.6073
ARG_OF_PERICENTER = 215.2041
MEAN_ANOMALY   = 144.8527

EPHEMERIS_TYPE = 0
CLASSIFICATION_TYPE = U
NORAD_CAT_ID   = 68203
ELEMENT_SET_NO = 999
REV_AT_EPOCH   = 187
BSTAR          = .48274E-3
MEAN_MOTION_DOT = .7937E-4
MEAN_MOTION_DDOT = 0

